{
  "norad_id": 68418,
  "name": "TRANSPORTER-16 OBJECT C",
  "history": [
    {
      "epoch": "2026-04-14T03:08:21.791328Z",
      "apogee_km": 512.8167061815611,
      "perigee_km": 507.93275136586,
      "latitude_deg": -4.8175784254618704e-05,
      "longitude_deg": 174.17516558540208,
      "height_km": 514.9924580236428,
      "semi_major_axis_km": 6888.51172877371,
      "eccentricity": 0.0003545,
      "inclination_deg": 97.4531,
      "raan_deg": 63.5776,
      "arg_perigee_deg": 128.9478,
      "mean_anomaly_deg": 231.2072,
      "mean_motion_rev_day": 15.18499519
    }
  ]
}