{"fetched_at":"2026-04-16T17:13:58Z","count":4884,"tles":[{"name":"TRANSPORTER-16 OBJECT C","line1":"1 68418U 26067C   26104.13080777  .00002924  00000+0  14505-3 0  9998","line2":"2 68418  97.4531  63.5776 0003545 128.9478 231.2072 15.18499519  2223","category":"Other"}]}